{
  "links" : {
    "next" : "https://api.nasa.gov/neo/rest/v1/neo/browse?page=44&size=20&api_key=jqAGvNAwUIBu4fl9FSOjdm3V4F7hIglRzI6pdX9d",
    "prev" : "https://api.nasa.gov/neo/rest/v1/neo/browse?page=42&size=20&api_key=jqAGvNAwUIBu4fl9FSOjdm3V4F7hIglRzI6pdX9d",
    "self" : "https://api.nasa.gov/neo/rest/v1/neo/browse?page=43&size=20&api_key=jqAGvNAwUIBu4fl9FSOjdm3V4F7hIglRzI6pdX9d"
  },
  "page" : {
    "size" : 20,
    "total_elements" : 20750,
    "total_pages" : 1038,
    "number" : 43
  },
  "near_earth_objects" : [ {
    "links" : {
      "self" : "https://api.nasa.gov/neo/rest/v1/neo/3840849?api_key=jqAGvNAwUIBu4fl9FSOjdm3V4F7hIglRzI6pdX9d"
    },
    "neo_reference_id" : "3840849",
    "name" : "(2019 GU3)",
    "designation" : "2019 GU3",
    "nasa_jpl_url" : "http://ssd.jpl.nasa.gov/sbdb.cgi?sstr=3840849",
    "absolute_magnitude_h" : 23.808,
    "estimated_diameter" : {
      "kilometers" : {
        "estimated_diameter_min" : 0.0460208861,
        "estimated_diameter_max" : 0.1029058297
      },
      "meters" : {
        "estimated_diameter_min" : 46.0208861166,
        "estimated_diameter_max" : 102.9058297415
      },
      "miles" : {
        "estimated_diameter_min" : 0.028596044,
        "estimated_diameter_max" : 0.0639426983
      },
      "feet" : {
        "estimated_diameter_min" : 150.9871640069,
        "estimated_diameter_max" : 337.6175624492
      }
    },
    "is_potentially_hazardous_asteroid" : false,
    "close_approach_data" : [ {
      "close_approach_date" : "2019-05-13",
      "epoch_date_close_approach" : 1557730800000,
      "relative_velocity" : {
        "kilometers_per_second" : "12.0165091957",
        "kilometers_per_hour" : "43259.4331044808",
        "miles_per_hour" : "26879.7294198369"
      },
      "miss_distance" : {
        "astronomical" : "0.07810813",
        "lunar" : "30.3840637207",
        "kilometers" : "11684810",
        "miles" : "7260604.5"
      },
      "orbiting_body" : "Earth"
    }, {
      "close_approach_date" : "2146-09-12",
      "epoch_date_close_approach" : 5576022000000,
      "relative_velocity" : {
        "kilometers_per_second" : "24.5853321217",
        "kilometers_per_hour" : "88507.1956381794",
        "miles_per_hour" : "54994.9294230676"
      },
      "miss_distance" : {
        "astronomical" : "0.4459585224",
        "lunar" : "173.4778594971",
        "kilometers" : "66714448",
        "miles" : "41454436"
      },
      "orbiting_body" : "Earth"
    } ],
    "orbital_data" : {
      "orbit_id" : "3",
      "orbit_determination_date" : "2019-04-24 07:01:04",
      "first_observation_date" : "2019-04-03",
      "last_observation_date" : "2019-04-24",
      "data_arc_in_days" : 21,
      "observations_used" : 17,
      "orbit_uncertainty" : "8",
      "minimum_orbit_intersection" : ".0775268",
      "jupiter_tisserand_invariant" : "3.386",
      "epoch_osculation" : "2458578.5",
      "eccentricity" : ".5830317099307162",
      "semi_major_axis" : "2.236242041967786",
      "inclination" : "6.355779466128367",
      "ascending_node_longitude" : "191.3144398634204",
      "orbital_period" : "1221.452658165492",
      "perihelion_distance" : ".9324420204203511",
      "perihelion_argument" : "83.69661081811287",
      "aphelion_distance" : "3.540042063515219",
      "perihelion_time" : "2458649.737392891188",
      "mean_anomaly" : "339.004129820844",
      "mean_motion" : ".2947310299694189",
      "equinox" : "J2000",
      "orbit_class" : {
        "orbit_class_type" : "APO",
        "orbit_class_range" : "a (semi-major axis) > 1.0 AU; q (perihelion) < 1.017 AU",
        "orbit_class_description" : "Near-Earth asteroid orbits which cross the Earth’s orbit similar to that of 1862 Apollo"
      }
    },
    "is_sentry_object" : false
  }, {
    "links" : {
      "self" : "https://api.nasa.gov/neo/rest/v1/neo/3840869?api_key=jqAGvNAwUIBu4fl9FSOjdm3V4F7hIglRzI6pdX9d"
    },
    "neo_reference_id" : "3840869",
    "name" : "(2019 GK4)",
    "designation" : "2019 GK4",
    "nasa_jpl_url" : "http://ssd.jpl.nasa.gov/sbdb.cgi?sstr=3840869",
    "absolute_magnitude_h" : 23.822,
    "estimated_diameter" : {
      "kilometers" : {
        "estimated_diameter_min" : 0.0457251329,
        "estimated_diameter_max" : 0.1022445055
      },
      "meters" : {
        "estimated_diameter_min" : 45.725132919,
        "estimated_diameter_max" : 102.2445054871
      },
      "miles" : {
        "estimated_diameter_min" : 0.0284122716,
        "estimated_diameter_max" : 0.0635317706
      },
      "feet" : {
        "estimated_diameter_min" : 150.016845086,
        "estimated_diameter_max" : 335.4478633823
      }
    },
    "is_potentially_hazardous_asteroid" : false,
    "close_approach_data" : [ {
      "close_approach_date" : "2019-04-10",
      "epoch_date_close_approach" : 1554879600000,
      "relative_velocity" : {
        "kilometers_per_second" : "14.9945122017",
        "kilometers_per_hour" : "53980.2439261452",
        "miles_per_hour" : "33541.2243439984"
      },
      "miss_distance" : {
        "astronomical" : "0.0895171037",
        "lunar" : "34.8221511841",
        "kilometers" : "13391568",
        "miles" : "8321134.5"
      },
      "orbiting_body" : "Earth"
    } ],
    "orbital_data" : {
      "orbit_id" : "2",
      "orbit_determination_date" : "2019-04-13 07:35:17",
      "first_observation_date" : "2019-04-07",
      "last_observation_date" : "2019-04-13",
      "data_arc_in_days" : 6,
      "observations_used" : 27,
      "orbit_uncertainty" : "9",
      "minimum_orbit_intersection" : ".0753639",
      "jupiter_tisserand_invariant" : "4.607",
      "epoch_osculation" : "2458581.5",
      "eccentricity" : ".4162546411208088",
      "semi_major_axis" : "1.395743201308846",
      "inclination" : "21.08910122674828",
      "ascending_node_longitude" : "189.5307799784929",
      "orbital_period" : "602.2914644415256",
      "perihelion_distance" : ".8147586159512238",
      "perihelion_argument" : "85.20255841125849",
      "aphelion_distance" : "1.976727786666469",
      "perihelion_time" : "2458642.034355384159",
      "mean_anomaly" : "323.8175713506015",
      "mean_motion" : ".5977172536121026",
      "equinox" : "J2000",
      "orbit_class" : {
        "orbit_class_type" : "APO",
        "orbit_class_range" : "a (semi-major axis) > 1.0 AU; q (perihelion) < 1.017 AU",
        "orbit_class_description" : "Near-Earth asteroid orbits which cross the Earth’s orbit similar to that of 1862 Apollo"
      }
    },
    "is_sentry_object" : false
  }, {
    "links" : {
      "self" : "https://api.nasa.gov/neo/rest/v1/neo/3840876?api_key=jqAGvNAwUIBu4fl9FSOjdm3V4F7hIglRzI6pdX9d"
    },
    "neo_reference_id" : "3840876",
    "name" : "(2019 GM5)",
    "designation" : "2019 GM5",
    "nasa_jpl_url" : "http://ssd.jpl.nasa.gov/sbdb.cgi?sstr=3840876",
    "absolute_magnitude_h" : 23.435,
    "estimated_diameter" : {
      "kilometers" : {
        "estimated_diameter_min" : 0.054645572,
        "estimated_diameter_max" : 0.1221912138
      },
      "meters" : {
        "estimated_diameter_min" : 54.6455720413,
        "estimated_diameter_max" : 122.1912137536
      },
      "miles" : {
        "estimated_diameter_min" : 0.0339551737,
        "estimated_diameter_max" : 0.0759260767
      },
      "feet" : {
        "estimated_diameter_min" : 179.2833785758,
        "estimated_diameter_max" : 400.8898217314
      }
    },
    "is_potentially_hazardous_asteroid" : false,
    "close_approach_data" : [ {
      "close_approach_date" : "2019-04-02",
      "epoch_date_close_approach" : 1554188400000,
      "relative_velocity" : {
        "kilometers_per_second" : "4.3579815009",
        "kilometers_per_hour" : "15688.7334033105",
        "miles_per_hour" : "9748.368819407"
      },
      "miss_distance" : {
        "astronomical" : "0.280896295",
        "lunar" : "109.268661499",
        "kilometers" : "42021488",
        "miles" : "26110944"
      },
      "orbiting_body" : "Earth"
    } ],
    "orbital_data" : {
      "orbit_id" : "2",
      "orbit_determination_date" : "2019-04-16 07:28:59",
      "first_observation_date" : "2019-04-05",
      "last_observation_date" : "2019-04-15",
      "data_arc_in_days" : 10,
      "observations_used" : 17,
      "orbit_uncertainty" : "8",
      "minimum_orbit_intersection" : ".278163",
      "jupiter_tisserand_invariant" : "3.414",
      "epoch_osculation" : "2458579.5",
      "eccentricity" : ".4531654756271443",
      "semi_major_axis" : "2.333504790748054",
      "inclination" : "7.27592215657821",
      "ascending_node_longitude" : ".5410582064411749",
      "orbital_period" : "1302.001462703022",
      "perihelion_distance" : "1.276040982370492",
      "perihelion_argument" : "188.8282955332415",
      "aphelion_distance" : "3.390968599125615",
      "perihelion_time" : "2458570.752670723043",
      "mean_anomaly" : "2.418613672804141",
      "mean_motion" : ".2764973852276797",
      "equinox" : "J2000",
      "orbit_class" : {
        "orbit_class_type" : "AMO",
        "orbit_class_range" : "1.017 AU < q (perihelion) < 1.3 AU",
        "orbit_class_description" : "Near-Earth asteroid orbits similar to that of 1221 Amor"
      }
    },
    "is_sentry_object" : false
  } ]
}